MULTIPOLYGON(((-122.13650208849504 47.643546317726006,-122.13637130432159 47.643386654309474,-122.13641584949853 47.642818140125414,-122.13642732698301 47.642671652356704,-122.13651067961423 47.64161576063074,-122.1366973519153 47.6416165707329,-122.13681903695701 47.64161709662011,-122.1370873589907 47.640700701123414,-122.13753659015609 47.64080885183504,-122.13753816962351 47.64080922816362,-122.13756120028275 47.64081487787286,-122.13755117851693 47.64083408860477,-122.13771670921646 47.640878904716814,-122.1378836209283 47.640921311154536,-122.13805184251297 47.64096128912076,-122.13822129348955 47.640998819050296,-122.13781351087155 47.642048022453594,-122.13765087166016 47.64201815927992,-122.13751931624338 47.64234528703578,-122.13756035302085 47.64235282047021,-122.13739043071338 47.642811365584095,-122.13708170997494 47.64364444345788,-122.13650208849504 47.643546317726006)))
